[{
    "OBJECT_NAME": "FENGYUN 1C DEB",
    "OBJECT_ID": "1999-025CQQ",
    "EPOCH": "2023-10-30T19:39:04.090176",
    "MEAN_MOTION": 14.17538906,
    "ECCENTRICITY": 0.0201698,
    "INCLINATION": 98.5873,
    "RA_OF_ASC_NODE": 308.0008,
    "ARG_OF_PERICENTER": 194.6575,
    "MEAN_ANOMALY": 164.8699,
    "EPHEMERIS_TYPE": 0,
    "CLASSIFICATION_TYPE": "U",
    "NORAD_CAT_ID": 32098,
    "ELEMENT_SET_NO": 999,
    "REV_AT_EPOCH": 53252,
    "BSTAR": 0.00042587,
    "MEAN_MOTION_DOT": 1.012e-5,
    "MEAN_MOTION_DDOT": 0
},{
    "OBJECT_NAME": "FENGYUN 1C DEB",
    "OBJECT_ID": "1999-025CQR",
    "EPOCH": "2023-10-31T21:22:17.686272",
    "MEAN_MOTION": 13.84991212,
    "ECCENTRICITY": 0.0362817,
    "INCLINATION": 98.2898,
    "RA_OF_ASC_NODE": 351.449,
    "ARG_OF_PERICENTER": 258.9841,
    "MEAN_ANOMALY": 281.9551,
    "EPHEMERIS_TYPE": 0,
    "CLASSIFICATION_TYPE": "U",
    "NORAD_CAT_ID": 32099,
    "ELEMENT_SET_NO": 999,
    "REV_AT_EPOCH": 53963,
    "BSTAR": 0.0017576,
    "MEAN_MOTION_DOT": 3.281e-5,
    "MEAN_MOTION_DDOT": 0
},{
    "OBJECT_NAME": "FENGYUN 1C DEB",
    "OBJECT_ID": "1999-025CQT",
    "EPOCH": "2023-11-01T22:55:44.717952",
    "MEAN_MOTION": 13.94183693,
    "ECCENTRICITY": 0.0133371,
    "INCLINATION": 99.0697,
    "RA_OF_ASC_NODE": 203.9349,
    "ARG_OF_PERICENTER": 199.5941,
    "MEAN_ANOMALY": 160.0067,
    "EPHEMERIS_TYPE": 0,
    "CLASSIFICATION_TYPE": "U",
    "NORAD_CAT_ID": 32101,
    "ELEMENT_SET_NO": 999,
    "REV_AT_EPOCH": 82417,
    "BSTAR": 0.0020313,
    "MEAN_MOTION_DOT": 2.858e-5,
    "MEAN_MOTION_DDOT": 0
},{
    "OBJECT_NAME": "FENGYUN 1C DEB",
    "OBJECT_ID": "1999-025CQX",
    "EPOCH": "2023-10-29T01:09:21.733344",
    "MEAN_MOTION": 13.34348199,
    "ECCENTRICITY": 0.0420151,
    "INCLINATION": 103.4543,
    "RA_OF_ASC_NODE": 33.7333,
    "ARG_OF_PERICENTER": 242.3799,
    "MEAN_ANOMALY": 113.4061,
    "EPHEMERIS_TYPE": 0,
    "CLASSIFICATION_TYPE": "U",
    "NORAD_CAT_ID": 32105,
    "ELEMENT_SET_NO": 999,
    "REV_AT_EPOCH": 49340,
    "BSTAR": 0.0055784,
    "MEAN_MOTION_DOT": 4.522e-5,
    "MEAN_MOTION_DDOT": 0
},{
    "OBJECT_NAME": "FENGYUN 1C DEB",
    "OBJECT_ID": "1999-025CQY",
    "EPOCH": "2023-11-01T11:45:43.682688",
    "MEAN_MOTION": 14.07979748,
    "ECCENTRICITY": 0.0137893,
    "INCLINATION": 101.4735,
    "RA_OF_ASC_NODE": 43.254,
    "ARG_OF_PERICENTER": 258.5078,
    "MEAN_ANOMALY": 100.057,
    "EPHEMERIS_TYPE": 0,
    "CLASSIFICATION_TYPE": "U",
    "NORAD_CAT_ID": 32106,
    "ELEMENT_SET_NO": 999,
    "REV_AT_EPOCH": 82898,
    "BSTAR": 0.0053125,
    "MEAN_MOTION_DOT": 9.801e-5,
    "MEAN_MOTION_DDOT": 0
},{
    "OBJECT_NAME": "FENGYUN 1C DEB",
    "OBJECT_ID": "1999-025CRB",
    "EPOCH": "2023-11-01T22:26:37.280544",
    "MEAN_MOTION": 14.29618898,
    "ECCENTRICITY": 0.0219017,
    "INCLINATION": 98.4464,
    "RA_OF_ASC_NODE": 197.7901,
    "ARG_OF_PERICENTER": 80.9395,
    "MEAN_ANOMALY": 281.6501,
    "EPHEMERIS_TYPE": 0,
    "CLASSIFICATION_TYPE": "U",
    "NORAD_CAT_ID": 32109,
    "ELEMENT_SET_NO": 999,
    "REV_AT_EPOCH": 85031,
    "BSTAR": 0.00060439,
    "MEAN_MOTION_DOT": 1.961e-5,
    "MEAN_MOTION_DDOT": 0
},{
    "OBJECT_NAME": "FENGYUN 1C DEB",
    "OBJECT_ID": "1999-025CRF",
    "EPOCH": "2023-11-01T08:26:40.957152",
    "MEAN_MOTION": 13.91122769,
    "ECCENTRICITY": 0.0247292,
    "INCLINATION": 99.1082,
    "RA_OF_ASC_NODE": 344.2408,
    "ARG_OF_PERICENTER": 173.7701,
    "MEAN_ANOMALY": 186.6632,
    "EPHEMERIS_TYPE": 0,
    "CLASSIFICATION_TYPE": "U",
    "NORAD_CAT_ID": 32113,
    "ELEMENT_SET_NO": 999,
    "REV_AT_EPOCH": 52133,
    "BSTAR": 0.0010888,
    "MEAN_MOTION_DOT": 1.712e-5,
    "MEAN_MOTION_DDOT": 0
},{
    "OBJECT_NAME": "FENGYUN 1C DEB",
    "OBJECT_ID": "1999-025CRG",
    "EPOCH": "2023-10-31T03:18:23.849856",
    "MEAN_MOTION": 14.5102044,
    "ECCENTRICITY": 0.0072313,
    "INCLINATION": 99.9416,
    "RA_OF_ASC_NODE": 252.3169,
    "ARG_OF_PERICENTER": 124.6724,
    "MEAN_ANOMALY": 236.1308,
    "EPHEMERIS_TYPE": 0,
    "CLASSIFICATION_TYPE": "U",
    "NORAD_CAT_ID": 32114,
    "ELEMENT_SET_NO": 999,
    "REV_AT_EPOCH": 54416,
    "BSTAR": 0.0028212,
    "MEAN_MOTION_DOT": 0.00011504,
    "MEAN_MOTION_DDOT": 0
},{
    "OBJECT_NAME": "FENGYUN 1C DEB",
    "OBJECT_ID": "1999-025CRK",
    "EPOCH": "2023-10-30T14:10:43.721184",
    "MEAN_MOTION": 14.17933129,
    "ECCENTRICITY": 0.0029451,
    "INCLINATION": 98.6815,
    "RA_OF_ASC_NODE": 354.3466,
    "ARG_OF_PERICENTER": 167.7334,
    "MEAN_ANOMALY": 192.4565,
    "EPHEMERIS_TYPE": 0,
    "CLASSIFICATION_TYPE": "U",
    "NORAD_CAT_ID": 32117,
    "ELEMENT_SET_NO": 999,
    "REV_AT_EPOCH": 83802,
    "BSTAR": 0.0015448,
    "MEAN_MOTION_DOT": 3.131e-5,
    "MEAN_MOTION_DDOT": 0
}]