1 32098U 99025CQQ 23303.81879734  .00001012  00000-0  42587-3 0  9998
2 32098  98.5873 308.0008 0201698 194.6575 164.8699 14.17538906532520
1 32099U 99025CQR 23304.89048248  .00003281  00000-0  17576-2 0  9995
2 32099  98.2898 351.4490 0362817 258.9841 281.9551 13.84991212539636
1 32101U 99025CQT 23305.95537868  .00002858  00000-0  20313-2 0  9990
2 32101  99.0697 203.9349 0133371 199.5941 160.0067 13.94183693823982
1 32105U 99025CQX 23302.04816821  .00004522  00000-0  55784-2 0  9990
2 32105 103.4543  33.7333 0420151 242.3799 113.4061 13.34348199493405
1 32106U 99025CQY 23305.49008892  .00009801  00000-0  53125-2 0  9996
2 32106 101.4735  43.2540 0137893 258.5078 100.0570 14.07979748828983
1 32109U 99025CRB 23305.93515371  .00001961  00000-0  60439-3 0  9999
2 32109  98.4464 197.7901 0219017  80.9395 281.6501 14.29618898538432
1 32113U 99025CRF 23305.35186293  .00001712  00000-0  10888-2 0  9993
2 32113  99.1082 344.2408 0247292 173.7701 186.6632 13.91122769521335
1 32114U 99025CRG 23304.13777604  .00011504  00000-0  28212-2 0  9991
2 32114  99.9416 252.3169 0072313 124.6724 236.1308 14.51020440544165
1 32117U 99025CRK 23303.59078381  .00003131  00000-0  15448-2 0  9993
2 32117  98.6815 354.3466 0029451 167.7334 192.4565 14.17933129838029
